STARLINK-30465          
1 57891U 23146A   23291.50001157 -.02091235  00000+0 -93295-1 0  9994
2 57891  43.0002  19.8825 0001781 265.0134 106.6116 15.24319971  5583
STARLINK-30470          
1 57892U 23146B   23291.50001157 -.02129580  00000+0 -93855-1 0  9992
2 57892  43.0001  19.8610 0001491 267.8783 113.1504 15.24793168  5581
STARLINK-30473          
1 57893U 23146C   23291.50001157 -.02141530  00000+0 -66024-1 0  9990
2 57893  42.9993  18.5289 0001160 267.9890 295.1755 15.36216044  5508
STARLINK-30443          
1 57894U 23146D   23291.50001157 -.02134356  00000+0 -91589-1 0  9993
2 57894  43.0000  19.8160 0001397 267.3439 132.0569 15.25681762  5645
STARLINK-30467          
1 57895U 23146E   23291.50001157 -.02131457  00000+0 -92694-1 0  9991
2 57895  43.0000  19.8379 0001406 270.2797 120.0130 15.25237081  5595
STARLINK-30469          
1 57896U 23146F   23291.50001157 -.02136848  00000+0 -90480-1 0  9992
2 57896  43.0000  19.7948 0001188 270.3933 137.9598 15.26126052  5644
STARLINK-30474          
1 57897U 23146G   23291.50001157 -.02134603  00000+0 -89165-1 0  9998
2 57897  42.9999  19.7738 0001208 278.8630 138.2887 15.26566955  5596
STARLINK-30479          
1 57898U 23146H   23291.58334491 -.02112395  00000+0 -88003-1 0  9991
2 57898  43.0000  19.2835 0000918 270.4289 253.9456 15.26617630  5651
STARLINK-30481          
1 57899U 23146J   23291.50001157 -.02137448  00000+0 -86897-1 0  9999
2 57899  42.9998  19.7334 0001302 274.4113 159.8666 15.27454836  5489
STARLINK-30457          
1 57900U 23146K   23291.58334491 -.02112417  00000+0 -85646-1 0  9990
2 57900  42.9999  19.2426 0000938 271.2326 270.2249 15.27503099  5509
STARLINK-30472          
1 57901U 23146L   23291.50001157 -.02135844  00000+0 -81175-1 0  9995
2 57901  42.9999  19.5047 0001199 256.3506 270.1635 15.29629429  5647
STARLINK-30462          
1 57902U 23146M   23291.50001157 -.02135123  00000+0 -84457-1 0  9992
2 57902  42.9998  19.6931 0001376 276.5163 174.2673 15.28338819  5599
STARLINK-30449          
1 57903U 23146N   23291.50001157 -.02139627  00000+0 -80217-1 0  9996
2 57903  43.0001  19.4869 0001006 265.4420 268.6378 15.30074521  5598
STARLINK-30466          
1 57904U 23146P   23291.58334491 -.02110542  00000+0 -83261-1 0  9992
2 57904  43.0000  19.2023 0000895 264.5236 293.3942 15.28387364  5601
STARLINK-30451          
1 57905U 23146Q   23291.50001157 -.02137483  00000+0 -79024-1 0  9990
2 57905  43.0001  19.4680 0001238 271.2464 270.2411 15.30515975  5647
STARLINK-30428          
1 57906U 23146R   23291.50001157 -.02138646  00000+0 -82321-1 0  9997
2 57906  42.9998  19.6560 0001144 280.9691 185.6958 15.29226247  5425
STARLINK-30482          
1 57907U 23146S   23291.50001157 -.02137851  00000+0 -81159-1 0  9993
2 57907  42.9997  19.6362 0001270 271.9161 202.4562 15.29668722  5277
STARLINK-30464          
1 57908U 23146T   23291.50001157 -.02138819  00000+0 -78987-1 0  9994
2 57908  42.9999  19.6004 0001028 278.7579 210.5619 15.30554731  5596
STARLINK-30463          
1 57909U 23146U   23291.50001157 -.02140796  00000+0 -80165-1 0  9993
2 57909  42.9999  19.6188 0001181 266.7369 215.1859 15.30113339  5642
STARLINK-30453          
1 57910U 23146V   23291.50001157 -.02139447  00000+0 -78906-1 0  9996
2 57910  42.9998  19.5960 0001055 278.4115 212.3879 15.30597676  5594
STARLINK-30478          
1 57911U 23146W   23291.50001157 -.02136879  00000+0 -77911-1 0  9998
2 57911  43.0000  19.4505 0001215 270.6676 278.0737 15.30958238  5642
STARLINK-30477          
1 57912U 23146X   23291.50001157 -.02138907  00000+0 -77794-1 0  9992
2 57912  42.9998  19.5782 0001096 288.5297 209.4947 15.31040553  5597
STARLINK-30450          
1 57913U 23147A   23291.50001157 -.01592748  00000+0 -30463-1 0  9992
2 57913  43.0001  46.0794 0001388 262.3917 204.6102 15.50306654  4975
STARLINK-30483          
1 57914U 23147B   23291.50001157 -.01557705  00000+0 -29727-1 0  9998
2 57914  43.0001  46.0777 0001617 264.7059 202.8764 15.50299120  4978
STARLINK-30454          
1 57915U 23147C   23291.50001157 -.01576202  00000+0 -30101-1 0  9990
2 57915  43.0001  46.0766 0001509 266.1391 202.0187 15.50316023  4975
STARLINK-30491          
1 57916U 23147D   23291.50001157 -.01603589  00000+0 -30608-1 0  9992
2 57916  43.0002  46.0691 0001401 268.1394 203.4731 15.50384159  5099
STARLINK-30501          
1 57917U 23147E   23291.50001157 -.01585296  00000+0 -30280-1 0  9993
2 57917  43.0001  46.0758 0001406 262.1390 206.5941 15.50329440  5097
STARLINK-30499          
1 57918U 23147F   23291.50001157 -.01591752  00000+0 -30402-1 0  9994
2 57918  43.0002  46.0736 0001601 267.0194 202.2896 15.50341386  5093
STARLINK-30496          
1 57919U 23147G   23291.50001157 -.01600969  00000+0 -30584-1 0  9997
2 57919  43.0003  46.0736 0001495 266.3394 203.5454 15.50354602  5099
STARLINK-30485          
1 57920U 23147H   23291.50001157 -.01608541  00000+0 -30730-1 0  9996
2 57920  43.0002  46.0709 0001566 266.2601 204.2000 15.50367315  5099
STARLINK-30492          
1 57921U 23147J   23291.50001157 -.01614914  00000+0 -30853-1 0  9994
2 57921  43.0002  46.0696 0001548 271.0317 200.0048 15.50378618  4973
STARLINK-30440          
1 57923U 23147L   23291.50001157 -.01608020  00000+0 -30690-1 0  9996
2 57923  43.0002  46.0682 0001365 268.8870 203.3012 15.50395342  5099
STARLINK-30487          
1 57924U 23147M   23291.50001157 -.01632456  00000+0 -31136-1 0  9993
2 57924  43.0003  46.0596 0001335 277.3472 198.2939 15.50460928  5098
STARLINK-30452          
1 57925U 23147N   23291.50001157 -.01612796  00000+0 -30779-1 0  9991
2 57925  43.0001  46.0666 0001352 269.7064 203.0574 15.50406594  5039
STARLINK-30468          
1 57926U 23147P   23291.50001157 -.01616897  00000+0 -30853-1 0  9991
2 57926  43.0003  46.0646 0001424 271.6540 201.6852 15.50417723  5030
STARLINK-30459          
1 57927U 23147Q   23291.50001157 -.01620642  00000+0 -30920-1 0  9990
2 57927  43.0002  46.0641 0001476 274.2267 199.6879 15.50428519  4980
STARLINK-30448          
1 57928U 23147R   23291.50001157 -.01628120  00000+0 -31068-1 0  9994
2 57928  43.0002  46.0626 0001108 267.2409 207.2486 15.50441275  4980
STARLINK-30475          
1 57929U 23147S   23291.50001157 -.01643039  00000+0 -31324-1 0  9996
2 57929  43.0002  46.0556 0001331 271.9317 205.4338 15.50493696  4981
STARLINK-30476          
1 57930U 23147T   23291.50001157 -.00349851  00000+0 -16258-2 0  9992
2 57930  42.9949  43.4571 0001905 272.7945 160.5415 15.83288527  5060
STARLINK-30488          
1 57931U 23147U   23291.50001157 -.01630941  00000+0 -31114-1 0  9994
2 57931  43.0003  46.0603 0001318 271.1213 203.9434 15.50451960  5091
STARLINK-30471          
1 57932U 23147V   23291.50001157 -.01645377  00000+0 -31358-1 0  9994
2 57932  43.0003  46.0545 0001729 274.2743 203.6656 15.50504062  5034
STARLINK-30461          
1 57933U 23147W   23291.50001157 -.01639090  00000+0 -31263-1 0  9995
2 57933  43.0002  46.0579 0001235 269.2775 206.9374 15.50474153  4985
STARLINK-30458          
1 57934U 23147X   23291.50001157 -.01643514  00000+0 -31346-1 0  9994
2 57934  43.0002  46.0561 0001094 270.0621 206.7279 15.50485119  4986
STARLINK-30712          
1 57935U 23148A   23291.58334491 -.01677383  00000+0 -23124-1 0  9990
2 57935  53.0543 109.3537 0000856  93.3090 174.8192 15.59516380  4832
STARLINK-30716          
1 57936U 23148B   23291.58334491 -.01679050  00000+0 -23140-1 0  9992
2 57936  53.0541 109.3532 0001101 105.4029 163.1912 15.59525084  4839
STARLINK-30400          
1 57937U 23148C   23291.58334491 -.01675350  00000+0 -23099-1 0  9995
2 57937  53.0545 109.3544 0001079 103.4478 164.2123 15.59507512  4839
STARLINK-30710          
1 57938U 23148D   23291.58334491 -.00638147  00000+0 -49670-2 0  9992
2 57938  53.0540 108.4306 0001074  98.2066 262.6161 15.72869487  4843
STARLINK-30714          
1 57939U 23148E   23291.58334491 -.01679984  00000+0 -23147-1 0  9998
2 57939  53.0544 109.3518 0001150  99.9785 169.0826 15.59532897  4838
STARLINK-30711          
1 57940U 23148F   23291.58334491 -.01680789  00000+0 -23146-1 0  9994
2 57940  53.0541 109.3494 0001041  98.5317 171.4635 15.59548842  4837
STARLINK-30715          
1 57941U 23148G   23291.58334491 -.01680673  00000+0 -23137-1 0  9997
2 57941  53.0543 109.3485 0001108  95.0189 175.4434 15.59556391  4832
STARLINK-30455          
1 57942U 23148H   23291.58334491 -.01677668  00000+0 -23087-1 0  9992
2 57942  53.0543 109.3479 0000836  93.4490 177.4812 15.59563157  4830
STARLINK-30456          
1 57943U 23148J   23291.58334491 -.01673473  00000+0 -23019-1 0  9998
2 57943  53.0543 109.3465 0000802  95.2334 176.1653 15.59567676  4835
STARLINK-30708          
1 57944U 23148K   23291.58334491 -.01680283  00000+0 -23110-1 0  9998
2 57944  53.0542 109.3457 0001191  98.7807 173.0822 15.59579323  4893
STARLINK-30705          
1 57945U 23148L   23291.58334491 -.01677995  00000+0 -23069-1 0  9998
2 57945  53.0543 109.3444 0001165 111.4692 160.8611 15.59586292  4834
STARLINK-30704          
1 57946U 23148M   23291.58334491 -.01515336  00000+0 -14498-1 0  9995
2 57946  53.0558 109.1087 0001030   9.7592  22.6677 15.68834709  4848
STARLINK-30706          
1 57947U 23148N   23291.50001157 -.01621344  00000+0 -22389-1 0  9993
2 57947  53.0543 109.7474 0000809 100.8952  64.1852 15.59882899  4822
STARLINK-30709          
1 57948U 23148P   23291.50001157 -.01622135  00000+0 -22391-1 0  9996
2 57948  53.0545 109.7463 0001137  97.6230  67.9198 15.59891687  4829
STARLINK-30707          
1 57949U 23148Q   23291.50001157 -.01620822  00000+0 -22364-1 0  9998
2 57949  53.0545 109.7452 0001190  86.7124  79.2951 15.59898661  4820
STARLINK-30701          
1 57950U 23148R   23291.50001157 -.01622503  00000+0 -22384-1 0  9990
2 57950  53.0541 109.7442 0001051  93.3391  73.1320 15.59907296  4821
STARLINK-30399          
1 57951U 23148S   23291.50001157 -.01622029  00000+0 -22368-1 0  9996
2 57951  53.0543 109.7430 0001237 104.5338  62.4008 15.59915390  4821
